SAT-A
1 88888U 24001A   24190.00000000  .00000001  00000-0  00000-0 0  9991
2 88888  51.6400 180.0000 0001000  90.0000  10.0000 15.50000000    01
SAT-B
1 88889U 24001B   24190.00000000  .00000001  00000-0  00000-0 0  9992
2 88889  51.6400 180.0050 0001000  90.0000  10.0000 15.50000000    02
